[Satellite]
VERSION=1.1
NAME=ABS-1 (LMI 1)
NICKNAME=ABS-1 (LMI 1)
TLE1=1 25924U 99053A   17185.77225234 -.00000124  00000-0  00000-0 0  9990
TLE2=2 25924   0.0332 309.7557 0002645 154.8458 255.4201  1.00274700 65102
